IRIDIUM 112             
1 41925U 17003J   25102.87108806  .00000206  00000+0  66534-4 0  9995
2 41925  86.3912 268.0776 0002229  89.2804 270.8647 14.34219305431626
IRIDIUM 111             
1 41926U 17003K   25102.85840208  .00000151  00000+0  46990-4 0  9996
2 41926  86.3918 268.1441 0002071  93.9596 266.1837 14.34219074431642
IRIDIUM 113             
1 42803U 17039A   25102.55929647  .00000127  00000+0  38258-4 0  9993
2 42803  86.3978 142.1874 0002437  87.1221 273.0254 14.34218488409463
IRIDIUM 123             
1 42804U 17039B   25102.81007967  .00000317  00000+0  10624-3 0  9992
2 42804  86.4027 173.5118 0001956  98.1628 261.9790 14.34216959408266
IRIDIUM 120             
1 42805U 17039C   25102.83202657  .00000237  00000+0  77646-4 0  9997
2 42805  86.3962 141.9117 0002209 102.7217 257.4226 14.34216975409498
IRIDIUM 115             
1 42806U 17039D   25102.85137731  .00000569  00000+0  16307-3 0  9994
2 42806  86.4500 141.9732 0001537  98.5157 261.6218 14.43274461412192
IRIDIUM 118             
1 42807U 17039E   25102.91156251  .00000065  00000+0  16004-4 0  9996
2 42807  86.4029 173.4695 0002330  93.5102 266.6360 14.34217819408275
IRIDIUM 117             
1 42808U 17039F   25102.65151498  .00000498  00000+0  17075-3 0  9994
2 42808  86.4029 173.5399 0001923  93.4309 266.7106 14.34216495408260
